[{"OBJECT_NAME":"STARLINK-4270","OBJECT_ID":"2022-062AK","EPOCH":"2026-03-09T06:27:17.093376","MEAN_MOTION":15.08840708,"ECCENTRICITY":0.00015494,"INCLINATION":53.219,"RA_OF_ASC_NODE":26.0089,"ARG_OF_PERICENTER":93.4908,"MEAN_ANOMALY":266.6262,"EPHEMERIS_TYPE":0,"CLASSIFICATION_TYPE":"U","NORAD_CAT_ID":52863,"ELEMENT_SET_NO":999,"REV_AT_EPOCH":20586,"BSTAR":3.4003308e-5,"MEAN_MOTION_DOT":2.53e-6,"MEAN_MOTION_DDOT":0},{"OBJECT_NAME":"JILIN-1 KUANFU 02A","OBJECT_ID":"2023-127A","EPOCH":"2026-03-09T22:42:00.221760","MEAN_MOTION":15.09948681,"ECCENTRICITY":0.0009702,"INCLINATION":97.5529,"RA_OF_ASC_NODE":164.1218,"ARG_OF_PERICENTER":318.2814,"MEAN_ANOMALY":41.7675,"EPHEMERIS_TYPE":0,"CLASSIFICATION_TYPE":"U","NORAD_CAT_ID":57696,"ELEMENT_SET_NO":999,"REV_AT_EPOCH":14065,"BSTAR":0.00045097028,"MEAN_MOTION_DOT":7.263e-5,"MEAN_MOTION_DDOT":0}]
